{"type": "FeatureCollection", "features": [{"type": "Feature", "geometry": {"type": "Polygon", "coordinates": [[[-85.1, 40.69], [-85.08, 40.72], [-84.99, 40.64], [-85.02, 40.61], [-85.1, 40.69]]]}, "properties": {"id": "urn:oid:2.49.0.1.840.0.232d6a72edc109e2313fbde1260009b24493b135.002.1", "event": "Flood Warning", "severity": "Severe", "certainty": "Observed", "urgency": "Immediate", "areaDesc": "Adams, IN; Wells, IN", "headline": "Flood Warning issued September 17 at 4:17PM EDT by NWS Northern Indiana", "onset": "2026-09-17T16:17:00-04:00", "expires": "2026-09-18T10:30:00-04:00", "senderName": "NWS Northern Indiana", "name": "Flood Warning: Adams, IN; Wells, IN"}}, {"type": "Feature", "geometry": {"type": "Polygon", "coordinates": [[[-85.33, 40.8], [-85.33, 40.83], [-85.12, 40.78], [-85.08, 40.72], [-85.11, 40.69], [-85.33, 40.8]]]}, "properties": {"id": "urn:oid:2.49.0.1.840.0.232d6a72edc109e2313fbde1260009b24493b135.001.1", "event": "Flood Warning", "severity": "Severe", "certainty": "Observed", "urgency": "Immediate", "areaDesc": "Wells, IN", "headline": "Flood Warning issued September 17 at 4:17PM EDT by NWS Northern Indiana", "onset": "2026-09-17T16:17:00-04:00", "expires": "2026-09-18T10:30:00-04:00", "senderName": "NWS Northern Indiana", "name": "Flood Warning: Wells, IN"}}, {"type": "Feature", "geometry": {"type": "Polygon", "coordinates": [[[-85.64, 40.73], [-85.64, 40.92], [-84.8, 40.82], [-84.8, 40.51], [-85.2, 40.57], [-85.37, 40.57], [-85.44, 40.65], [-85.64, 40.65], [-85.64, 40.73]]]}, "properties": {"id": "urn:oid:2.49.0.1.840.0.622cfd1271bc18eb5650d5ff6b4a38b81919787e.001.1", "event": "Flood Warning", "severity": "Severe", "certainty": "Likely", "urgency": "Expected", "areaDesc": "Adams, IN; Huntington, IN; Jay, IN; Wells, IN", "headline": "Flood Warning issued September 17 at 2:18PM EDT until September 18 at 10:00AM EDT by NWS Northern Indiana", "onset": "2026-09-17T14:18:00-04:00", "expires": "2026-09-18T10:00:00-04:00", "senderName": "NWS Northern Indiana", "name": "Flood Warning: Adams, IN; Huntington, IN; Jay, IN; Wells, IN"}}, {"type": "Feature", "geometry": {"type": "Polygon", "coordinates": [[[-86.18, 40.7], [-86.19, 40.78], [-85.7, 40.86], [-85.68, 40.81], [-86.18, 40.7]]]}, "properties": {"id": "urn:oid:2.49.0.1.840.0.2ebba3d60c99baaacf6719e5538dd8c5bfa8397d.002.1", "event": "Flood Warning", "severity": "Severe", "certainty": "Observed", "urgency": "Immediate", "areaDesc": "Cass, IN; Miami, IN; Wabash, IN", "headline": "Flood Warning issued September 17 at 12:31PM EDT until September 19 at 8:00PM EDT by NWS Northern Indiana", "onset": "2026-09-17T17:12:00-04:00", "expires": "2026-09-18T06:45:00-04:00", "senderName": "NWS Northern Indiana", "name": "Flood Warning: Cass, IN; Miami, IN; Wabash, IN"}}, {"type": "Feature", "geometry": {"type": "Polygon", "coordinates": [[[-85.18, 41.04], [-85.16, 41.09], [-85.12, 41.09], [-85.14, 41.04], [-85.04, 40.94], [-85.06, 40.93], [-85.18, 41.04]]]}, "properties": {"id": "urn:oid:2.49.0.1.840.0.2ebba3d60c99baaacf6719e5538dd8c5bfa8397d.004.1", "event": "Flood Warning", "severity": "Severe", "certainty": "Observed", "urgency": "Immediate", "areaDesc": "Allen, IN", "headline": "Flood Warning issued September 17 at 12:31PM EDT until September 21 at 11:36PM EDT by NWS Northern Indiana", "onset": "2026-09-18T17:00:00-04:00", "expires": "2026-09-18T06:45:00-04:00", "senderName": "NWS Northern Indiana", "name": "Flood Warning: Allen, IN"}}, {"type": "Feature", "geometry": {"type": "Polygon", "coordinates": [[[-85.06, 40.93], [-85.04, 40.94], [-84.91, 40.84], [-84.94, 40.82], [-85.06, 40.93]]]}, "properties": {"id": "urn:oid:2.49.0.1.840.0.2ebba3d60c99baaacf6719e5538dd8c5bfa8397d.003.1", "event": "Flood Warning", "severity": "Severe", "certainty": "Observed", "urgency": "Immediate", "areaDesc": "Adams, IN; Allen, IN; Van Wert, OH", "headline": "Flood Warning issued September 17 at 12:31PM EDT until September 22 at 12:52PM EDT by NWS Northern Indiana", "onset": "2026-09-17T19:21:00-04:00", "expires": "2026-09-18T06:45:00-04:00", "senderName": "NWS Northern Indiana", "name": "Flood Warning: Adams, IN; Allen, IN; Van Wert, OH"}}, {"type": "Feature", "geometry": {"type": "Polygon", "coordinates": [[[-84.46, 40.68], [-84.4, 40.68], [-84.33, 40.69], [-84.33, 40.48], [-84.34, 40.48], [-84.34, 40.45], [-84.35, 40.42], [-84.62, 40.44], [-84.8, 40.47], [-84.8, 40.73], [-84.46, 40.73], [-84.46, 40.68]]]}, "properties": {"id": "urn:oid:2.49.0.1.840.0.4ad0aa81cfc73c729cd292acbf145b508a9538ef.001.1", "event": "Flood Warning", "severity": "Severe", "certainty": "Likely", "urgency": "Expected", "areaDesc": "Auglaize, OH; Mercer, OH; Shelby, OH", "headline": "Flood Warning issued September 17 at 10:44AM EDT until September 17 at 4:45PM EDT by NWS Wilmington OH", "onset": "2026-09-17T10:44:00-04:00", "expires": "2026-09-17T16:45:00-04:00", "senderName": "NWS Wilmington OH", "name": "Flood Warning: Auglaize, OH; Mercer, OH; Shelby, OH"}}, {"type": "Feature", "geometry": {"type": "Polygon", "coordinates": [[[-82.44, 28.98], [-82.48, 29.02], [-82.44, 29.09], [-82.37, 29.07], [-82.44, 28.98]]]}, "properties": {"id": "urn:oid:2.49.0.1.840.0.8c7dc21cc5dd016c4b6ac68138bbe42388bc3ddb.001.1", "event": "Flood Warning", "severity": "Severe", "certainty": "Observed", "urgency": "Immediate", "areaDesc": "Citrus, FL; Levy, FL; Marion, FL", "headline": "Flood Warning issued September 17 at 10:44AM EDT by NWS Tampa Bay Ruskin FL", "onset": "2026-09-17T10:44:00-04:00", "expires": "2026-09-18T00:00:00-04:00", "senderName": "NWS Tampa Bay Ruskin FL", "name": "Flood Warning: Citrus, FL; Levy, FL; Marion, FL"}}, {"type": "Feature", "geometry": {"type": "Polygon", "coordinates": [[[-93.43, 39.67], [-93.43, 39.78], [-93.27, 39.7], [-93.21, 39.53], [-93.3, 39.51], [-93.43, 39.67]]]}, "properties": {"id": "urn:oid:2.49.0.1.840.0.debe1619d3f21dff76f6b6ffc9f1f5298fca253c.001.1", "event": "Flood Warning", "severity": "Severe", "certainty": "Observed", "urgency": "Immediate", "areaDesc": "Carroll, MO; Chariton, MO; Linn, MO; Livingston, MO", "headline": "Flood Warning issued September 17 at 9:43AM CDT until September 20 at 4:36AM CDT by NWS Kansas City/Pleasant Hill MO", "onset": "2026-09-18T06:24:00-05:00", "expires": "2026-09-18T09:45:00-05:00", "senderName": "NWS Kansas City/Pleasant Hill MO", "name": "Flood Warning: Carroll, MO; Chariton, MO; Linn, MO; Livingston,"}}, {"type": "Feature", "geometry": {"type": "Polygon", "coordinates": [[[-105.63, 33.33], [-105.45, 33.42], [-105.43, 33.43], [-105.42, 33.4], [-105.58, 33.31], [-105.66, 33.31], [-105.63, 33.33]]]}, "properties": {"id": "urn:oid:2.49.0.1.840.0.5707f85fef35075192db83de991e93c86254b8cc.001.1", "event": "Flash Flood Warning", "severity": "Severe", "certainty": "Likely", "urgency": "Immediate", "areaDesc": "Lincoln, NM", "headline": "Flash Flood Warning issued September 17 at 2:13PM MDT until September 17 at 3:30PM MDT by NWS Albuquerque NM", "onset": "2026-09-17T14:13:00-06:00", "expires": "2026-09-17T15:30:00-06:00", "senderName": "NWS Albuquerque NM", "name": "Flash Flood Warning: Lincoln, NM"}}, {"type": "Feature", "geometry": {"type": "Polygon", "coordinates": [[[-105.5, 33.36], [-105.51, 33.31], [-105.58, 33.31], [-105.5, 33.36]]]}, "properties": {"id": "urn:oid:2.49.0.1.840.0.ece0adc8e522f072a844af4e645b99b2d4d9fa28.001.1", "event": "Flash Flood Warning", "severity": "Severe", "certainty": "Likely", "urgency": "Immediate", "areaDesc": "Lincoln, NM", "headline": "Flash Flood Warning issued September 17 at 2:01PM MDT until September 17 at 4:00PM MDT by NWS Albuquerque NM", "onset": "2026-09-17T14:01:00-06:00", "expires": "2026-09-17T16:00:00-06:00", "senderName": "NWS Albuquerque NM", "name": "Flash Flood Warning: Lincoln, NM"}}, {"type": "Feature", "geometry": {"type": "Polygon", "coordinates": [[[-105.53, 33.31], [-105.52, 33.27], [-105.59, 33.26], [-105.58, 33.31], [-105.53, 33.31]]]}, "properties": {"id": "urn:oid:2.49.0.1.840.0.baad9cf8f48c62f40063188665bfda0e2bb40391.001.1", "event": "Flash Flood Warning", "severity": "Severe", "certainty": "Likely", "urgency": "Immediate", "areaDesc": "Otero, NM", "headline": "Flash Flood Warning issued September 17 at 1:50PM MDT until September 17 at 3:45PM MDT by NWS El Paso Tx/Santa Teresa NM", "onset": "2026-09-17T13:50:00-06:00", "expires": "2026-09-17T15:45:00-06:00", "senderName": "NWS El Paso Tx/Santa Teresa NM", "name": "Flash Flood Warning: Otero, NM"}}, {"type": "Feature", "geometry": {"type": "Polygon", "coordinates": [[[-105.78, 33.82], [-105.72, 33.83], [-105.69, 33.8], [-105.68, 33.77], [-105.67, 33.73], [-105.67, 33.7], [-105.65, 33.62], [-105.73, 33.59], [-105.86, 33.65], [-105.87, 33.68], [-105.88, 33.69], [-105.9, 33.72], [-105.9, 33.74], [-105.83, 33.77], [-105.78, 33.82]]]}, "properties": {"id": "urn:oid:2.49.0.1.840.0.407bb18604e3856ca3b63ce8189ca66f62024b8d.001.1", "event": "Flash Flood Warning", "severity": "Severe", "certainty": "Likely", "urgency": "Immediate", "areaDesc": "Lincoln, NM", "headline": "Flash Flood Warning issued September 17 at 1:25PM MDT until September 17 at 4:30PM MDT by NWS Albuquerque NM", "onset": "2026-09-17T13:25:00-06:00", "expires": "2026-09-17T16:30:00-06:00", "senderName": "NWS Albuquerque NM", "name": "Flash Flood Warning: Lincoln, NM"}}, {"type": "Feature", "geometry": {"type": "Polygon", "coordinates": [[[-105.61, 33.26], [-105.65, 33.26], [-105.69, 33.24], [-105.72, 33.24], [-105.68, 33.29], [-105.66, 33.31], [-105.59, 33.31], [-105.58, 33.3], [-105.59, 33.27], [-105.61, 33.26]]]}, "properties": {"id": "urn:oid:2.49.0.1.840.0.53c38730a5ae5316c75a54d9045bb07206a3b6e1.001.1", "event": "Flash Flood Warning", "severity": "Severe", "certainty": "Likely", "urgency": "Immediate", "areaDesc": "Otero, NM", "headline": "Flash Flood Warning issued September 17 at 12:56PM MDT until September 17 at 2:30PM MDT by NWS El Paso Tx/Santa Teresa NM", "onset": "2026-09-17T12:56:00-06:00", "expires": "2026-09-17T14:30:00-06:00", "senderName": "NWS El Paso Tx/Santa Teresa NM", "name": "Flash Flood Warning: Otero, NM"}}], "properties": {"source": "https://api.weather.gov/alerts/active", "events": ["Flood Warning", "Flash Flood Warning"], "fetched_at": "20260917T201855Z", "without_geometry": 0, "area": null}}